[{"OBJECT_NAME":"STARLINK-3158","OBJECT_ID":"2021-104AA","EPOCH":"2026-03-09T15:11:17.738880","MEAN_MOTION":15.08831335,"ECCENTRICITY":0.000121,"INCLINATION":53.2166,"RA_OF_ASC_NODE":219.3753,"ARG_OF_PERICENTER":82.4391,"MEAN_ANOMALY":277.6738,"EPHEMERIS_TYPE":0,"CLASSIFICATION_TYPE":"U","NORAD_CAT_ID":49432,"ELEMENT_SET_NO":999,"REV_AT_EPOCH":23876,"BSTAR":0.00011506,"MEAN_MOTION_DOT":1.543e-5,"MEAN_MOTION_DDOT":0},{"OBJECT_NAME":"OBJECT R","OBJECT_ID":"2023-091R","EPOCH":"2026-03-09T23:14:08.723328","MEAN_MOTION":15.13803604,"ECCENTRICITY":0.00168604,"INCLINATION":97.5196,"RA_OF_ASC_NODE":124.2169,"ARG_OF_PERICENTER":118.5914,"MEAN_ANOMALY":241.7016,"EPHEMERIS_TYPE":0,"CLASSIFICATION_TYPE":"U","NORAD_CAT_ID":57181,"ELEMENT_SET_NO":999,"REV_AT_EPOCH":14867,"BSTAR":0.00029975355,"MEAN_MOTION_DOT":5.364e-5,"MEAN_MOTION_DDOT":0}]
